[
    {
        "Altitude(m)": 605470.7848716152,
        "Argument of Periapsis(deg)": 0.0,
        "Eccentricity": 0.0,
        "Inclination(deg)": 60.0,
        "Latitude(deg)": 27.988189501474025,
        "Longitude(deg)": 152.26298713533996,
        "Mean Anomaly(deg)": 147.2727,
        "RAAN(deg)": 90.0,
        "Satellite Name": "Test1 405",
        "Satellite Number": 405,
        "Semi-Major Axis(m)": 6980739.136638005,
        "Time(s)": 0
    },
    {
        "Altitude(m)": 605395.8226753975,
        "Argument of Periapsis(deg)": 0.00010418945913296404,
        "Eccentricity": 0.0,
        "Inclination(deg)": 60.0,
        "Latitude(deg)": 27.473879727330242,
        "Longitude(deg)": 152.61617399578844,
        "Mean Anomaly(deg)": 147.89280614546186,
        "RAAN(deg)": 89.99957995086027,
        "Satellite Name": "Test1 405",
        "Satellite Number": 405,
        "Semi-Major Axis(m)": 6980739.136638005,
        "Time(s)": 10
    }
]